SOYUZ-MS 28             
1 66664U 25275A   26001.21026978  .00014823  00000+0  27654-3 0  9997
2 66664  51.6328  46.0577 0007509 326.8003  33.2513 15.48996227  1288
1998-067XS              
1 66906U 98067XS  26001.31521928  .00035503  00000+0  58984-3 0  9999
2 66906  51.6324  45.2592 0002518 305.8505  54.2250 15.51733652  4650
1998-067XT              
1 66907U 98067XT  26001.29242785  .00089542  00000+0  13401-2 0  9994
2 66907  51.6314  45.1078 0003899 348.6240  11.4662 15.54217046  4651
1998-067XU              
1 66908U 98067XU  26001.29130938  .00088726  00000+0  13300-2 0  9992
2 66908  51.6307  45.0994 0003949 344.5705  15.5165 15.54176560  4655
SILVERSAT               
1 66909U 98067XV  26001.28798220  .00103409  00000+0  15186-2 0  9996
2 66909  51.6304  45.0772 0004034 351.8437   8.2488 15.54666780  4651
1998-067XW              
1 66910U 98067XW  26001.28695958  .00092338  00000+0  13688-2 0  9995
2 66910  51.6310  45.0708 0003353 323.5635  36.5127 15.54466618  4650
1998-067XX              
1 66911U 98067XX  25365.38052956  .00112028  00000+0  16211-2 0  9998
2 66911  51.6318  49.5181 0003204 330.0387  30.0420 15.55033456  4505
1998-067XY              
1 66912U 98067XY  26001.30071189  .00068740  00000+0  10681-2 0  9994
2 66912  51.6323  45.1632 0003779 336.2240  23.8576 15.53300941  4649
